
    {
        "ARG_OF_PERICENTER": 3.3751,
        "BSTAR": 0.0005691476,
        "CLASSIFICATION_TYPE": "U",
        "ECCENTRICITY": 0.00026331,
        "ELEMENT_SET_NO": 999,
        "EPHEMERIS_TYPE": 0,
        "EPOCH": "2026-05-05T01:28:39.028512",
        "INCLINATION": 98.0757,
        "MEAN_ANOMALY": 356.7505,
        "MEAN_MOTION": 15.30113005,
        "MEAN_MOTION_DDOT": 0,
        "MEAN_MOTION_DOT": 0.0001652,
        "NORAD_CAT_ID": 40024,
        "OBJECT_ID": "2014-033Q",
        "OBJECT_NAME": "NANOSATC-BR1",
        "RA_OF_ASC_NODE": 153.6706,
        "REV_AT_EPOCH": 64738
    },
    {
        "ARG_OF_PERICENTER": 25.2546,
        "BSTAR": 0.00046738129,
        "CLASSIFICATION_TYPE": "U",
        "ECCENTRICITY": 0.00092436,
        "ELEMENT_SET_NO": 999,
        "EPHEMERIS_TYPE": 0,
        "EPOCH": "2026-05-04T23:18:57.159360",
        "INCLINATION": 98.0981,
        "MEAN_ANOMALY": 334.9136,
        "MEAN_MOTION": 15.17592105,
        "MEAN_MOTION_DDOT": 0,
        "MEAN_MOTION_DOT": 9.331e-05,
        "NORAD_CAT_ID": 40025,
        "OBJECT_ID": "2014-033R",
        "OBJECT_NAME": "QB50P1",
        "RA_OF_ASC_NODE": 133.1094,
        "REV_AT_EPOCH": 64647
    },
    {
        "ARG_OF_PERICENTER": 334.1493,
        "BSTAR": 0.00050214,
        "CLASSIFICATION_TYPE": "U",
        "ECCENTRICITY": 0.0006413,
        "ELEMENT_SET_NO": 999,
        "EPHEMERIS_TYPE": 0,
        "EPOCH": "2026-05-05T10:18:20.433024",
        "INCLINATION": 98.0757,
        "MEAN_ANOMALY": 25.9416,
        "MEAN_MOTION": 15.14621123,
        "MEAN_MOTION_DDOT": 0,
        "MEAN_MOTION_DOT": 9.211e-05,
        "NORAD_CAT_ID": 40032,
        "OBJECT_ID": "2014-033Y",
        "OBJECT_NAME": "QB50P2",
        "RA_OF_ASC_NODE": 119.67,
        "REV_AT_EPOCH": 64619
    },
    {
        "ARG_OF_PERICENTER": 80.9485,
        "BSTAR": 6.6865e-05,
        "CLASSIFICATION_TYPE": "U",
        "ECCENTRICITY": 0.0013284,
        "ELEMENT_SET_NO": 999,
        "EPHEMERIS_TYPE": 0,
        "EPOCH": "2026-05-05T12:11:05.017344",
        "INCLINATION": 97.9949,
        "MEAN_ANOMALY": 279.3237,
        "MEAN_MOTION": 14.9537631,
        "MEAN_MOTION_DDOT": 0,
        "MEAN_MOTION_DOT": 6.78e-06,
        "NORAD_CAT_ID": 40037,
        "OBJECT_ID": "2014-033AD",
        "OBJECT_NAME": "PERSEUS-M2",
        "RA_OF_ASC_NODE": 75.1927,
        "REV_AT_EPOCH": 64440
    },
    {
        "ARG_OF_PERICENTER": 80.0019,
        "BSTAR": 0.00013124,
        "CLASSIFICATION_TYPE": "U",
        "ECCENTRICITY": 0.0013088,
        "ELEMENT_SET_NO": 999,
        "EPHEMERIS_TYPE": 0,
        "EPOCH": "2026-05-05T11:36:56.195136",
        "INCLINATION": 97.9626,
        "MEAN_ANOMALY": 280.2678,
        "MEAN_MOTION": 14.95491284,
        "MEAN_MOTION_DDOT": 0,
        "MEAN_MOTION_DOT": 1.394e-05,
        "NORAD_CAT_ID": 40039,
        "OBJECT_ID": "2014-033AF",
        "OBJECT_NAME": "PERSEUS-M1",
        "RA_OF_ASC_NODE": 68.9274,
        "REV_AT_EPOCH": 64425
    },
    {
        "ARG_OF_PERICENTER": 302.8959,
        "BSTAR": 0.00081589,
        "CLASSIFICATION_TYPE": "U",
        "ECCENTRICITY": 0.0005424,
        "ELEMENT_SET_NO": 999,
        "EPHEMERIS_TYPE": 0,
        "EPOCH": "2026-05-05T06:48:37.522368",
        "INCLINATION": 98.0973,
        "MEAN_ANOMALY": 57.1758,
        "MEAN_MOTION": 15.31816478,
        "MEAN_MOTION_DDOT": 0,
        "MEAN_MOTION_DOT": 0.00025043,
        "NORAD_CAT_ID": 40042,
        "OBJECT_ID": "2014-033AJ",
        "OBJECT_NAME": "POLYITAN-1",
        "RA_OF_ASC_NODE": 147.534,
        "REV_AT_EPOCH": 64702
    },
    {
        "ARG_OF_PERICENTER": 213.6292,
        "BSTAR": 0.0002991,
        "CLASSIFICATION_TYPE": "U",
        "ECCENTRICITY": 0.0048722,
        "ELEMENT_SET_NO": 999,
        "EPHEMERIS_TYPE": 0,
        "EPOCH": "2026-05-05T09:32:47.931072",
        "INCLINATION": 97.7782,
        "MEAN_ANOMALY": 146.1829,
        "MEAN_MOTION": 14.84982698,
        "MEAN_MOTION_DDOT": 0,
        "MEAN_MOTION_DOT": 2.549e-05,
        "NORAD_CAT_ID": 40043,
        "OBJECT_ID": "2014-033AK",
        "OBJECT_NAME": "TIGRISAT",
        "RA_OF_ASC_NODE": 276.4082,
        "REV_AT_EPOCH": 63927
    },
    {
        "ARG_OF_PERICENTER": 157.0986,
        "BSTAR": 0.00080939,
        "CLASSIFICATION_TYPE": "U",
        "ECCENTRICITY": 0.0039772,
        "ELEMENT_SET_NO": 999,
        "EPHEMERIS_TYPE": 0,
        "EPOCH": "2026-05-05T09:40:05.854656",
        "INCLINATION": 97.7195,
        "MEAN_ANOMALY": 203.202,
        "MEAN_MOTION": 14.97628132,
        "MEAN_MOTION_DDOT": 0,
        "MEAN_MOTION_DOT": 9.567e-05,
        "NORAD_CAT_ID": 40045,
        "OBJECT_ID": "2014-033AM",
        "OBJECT_NAME": "AEROCUBE 6A",
        "RA_OF_ASC_NODE": 292.8306,
        "REV_AT_EPOCH": 64021
    },
    {
        "ARG_OF_PERICENTER": 149.6183,
        "BSTAR": 0.00073679,
        "CLASSIFICATION_TYPE": "U",
        "ECCENTRICITY": 0.0037413,
        "ELEMENT_SET_NO": 999,
        "EPHEMERIS_TYPE": 0,
        "EPOCH": "2026-05-05T10:42:39.292704",
        "INCLINATION": 97.7178,
        "MEAN_ANOMALY": 210.7219,
        "MEAN_MOTION": 14.99060221,
        "MEAN_MOTION_DDOT": 0,
        "MEAN_MOTION_DOT": 9.018e-05,
        "NORAD_CAT_ID": 40046,
        "OBJECT_ID": "2014-033AN",
        "OBJECT_NAME": "AEROCUBE 6B",
        "RA_OF_ASC_NODE": 292.5798,
        "REV_AT_EPOCH": 64035
    },
    {
        "ARG_OF_PERICENTER": 144.6842,
        "BSTAR": 0.00011578066,
        "CLASSIFICATION_TYPE": "U",
        "ECCENTRICITY": 0.00134865,
        "ELEMENT_SET_NO": 999,
        "EPHEMERIS_TYPE": 0,
        "EPOCH": "2026-05-05T02:54:09.135648",
        "INCLINATION": 98.3178,
        "MEAN_ANOMALY": 215.5265,
        "MEAN_MOTION": 14.81185016,
        "MEAN_MOTION_DDOT": 0,
        "MEAN_MOTION_DOT": 8.45e-06,
        "NORAD_CAT_ID": 40055,
        "OBJECT_ID": "2014-034C",
        "OBJECT_NAME": "CANX-4",
        "RA_OF_ASC_NODE": 358.8425,
        "REV_AT_EPOCH": 63815
    },
    {
        "ARG_OF_PERICENTER": 144.0842,
        "BSTAR": 0.00014055,
        "CLASSIFICATION_TYPE": "U",
        "ECCENTRICITY": 0.0013491,
        "ELEMENT_SET_NO": 999,
        "EPHEMERIS_TYPE": 0,
        "EPOCH": "2026-05-05T09:21:43.083936",
        "INCLINATION": 98.318,
        "MEAN_ANOMALY": 216.1279,
        "MEAN_MOTION": 14.81203884,
        "MEAN_MOTION_DDOT": 0,
        "MEAN_MOTION_DOT": 1.038e-05,
        "NORAD_CAT_ID": 40056,
        "OBJECT_ID": "2014-034D",
        "OBJECT_NAME": "CANX-5",
        "RA_OF_ASC_NODE": 359.1628,
        "REV_AT_EPOCH": 62900
    },
    {
        "ARG_OF_PERICENTER": 41.2412,
        "BSTAR": 0.00061503,
        "CLASSIFICATION_TYPE": "U",
        "ECCENTRICITY": 0.0001049,
        "ELEMENT_SET_NO": 999,
        "EPHEMERIS_TYPE": 0,
        "EPOCH": "2026-05-05T10:48:45.899136",
        "INCLINATION": 98.4249,
        "MEAN_ANOMALY": 318.8896,
        "MEAN_MOTION": 15.1288868,
        "MEAN_MOTION_DDOT": 0,
        "MEAN_MOTION_DOT": 0.00010756,
        "NORAD_CAT_ID": 40074,
        "OBJECT_ID": "2014-037F",
        "OBJECT_NAME": "UKUBE-1",
        "RA_OF_ASC_NODE": 124.259,
        "REV_AT_EPOCH": 64209
    },
    {
        "ARG_OF_PERICENTER": 248.3439,
        "BSTAR": 0.00026674,
        "CLASSIFICATION_TYPE": "U",
        "ECCENTRICITY": 0.0012648,
        "ELEMENT_SET_NO": 999,
        "EPHEMERIS_TYPE": 0,
        "EPOCH": "2026-05-05T12:33:33.587424",
        "INCLINATION": 97.9049,
        "MEAN_ANOMALY": 111.6434,
        "MEAN_MOTION": 14.94437329,
        "MEAN_MOTION_DDOT": 0,
        "MEAN_MOTION_DOT": 2.82e-05,
        "NORAD_CAT_ID": 40119,
        "OBJECT_ID": "2014-049B",
        "OBJECT_NAME": "BRITE-PL2 (HEWELIUSZ)",
        "RA_OF_ASC_NODE": 237.211,
        "REV_AT_EPOCH": 63507
    }