NANOSATC-BR1            
1 40024U 14033Q   26125.06156283  .00016520  00000+0  56915-3 0  9990
2 40024  98.0757 153.6706 0002633   3.3751 356.7505 15.30113005647387
QB50P1                  
1 40025U 14033R   26124.97149490  .00009331  00000+0  46738-3 0  9996
2 40025  98.0981 133.1094 0009243  25.2546 334.9136 15.17592105646473
QB50P2                  
1 40032U 14033Y   26125.42940316  .00009211  00000+0  50214-3 0  9992
2 40032  98.0757 119.6700 0006413 334.1493  25.9416 15.14621123646191
PERSEUS-M2              
1 40037U 14033AD  26125.50769696  .00000678  00000+0  66865-4 0  9994
2 40037  97.9949  75.1927 0013284  80.9485 279.3237 14.95376310644406
PERSEUS-M1              
1 40039U 14033AF  26125.48398374  .00001394  00000+0  13124-3 0  9999
2 40039  97.9626  68.9274 0013088  80.0019 280.2678 14.95491284644252
POLYITAN-1              
1 40042U 14033AJ  26125.28376762  .00025043  00000+0  81589-3 0  9995
2 40042  98.0973 147.5340 0005424 302.8959  57.1758 15.31816478647029
TIGRISAT                
1 40043U 14033AK  26125.39777698  .00002549  00000+0  29910-3 0  9997
2 40043  97.7782 276.4082 0048722 213.6292 146.1829 14.84982698639277
AEROCUBE 6A             
1 40045U 14033AM  26125.40284554  .00009567  00000+0  80939-3 0  9990
2 40045  97.7195 292.8306 0039772 157.0986 203.2020 14.97628132640212
AEROCUBE 6B             
1 40046U 14033AN  26125.44628811  .00009018  00000+0  73679-3 0  9997
2 40046  97.7178 292.5798 0037413 149.6183 210.7219 14.99060221640351
CANX-4                  
1 40055U 14034C   26125.12093907  .00000845  00000+0  11578-3 0  9994
2 40055  98.3178 358.8425 0013486 144.6842 215.5265 14.81185016638152
CANX-5                  
1 40056U 14034D   26125.39008199  .00001038  00000+0  14055-3 0  9991
2 40056  98.3180 359.1628 0013491 144.0842 216.1279 14.81203884629005
UKUBE-1                 
1 40074U 14037F   26125.45053124  .00010756  00000+0  61503-3 0  9996
2 40074  98.4249 124.2590 0001049  41.2412 318.8896 15.12888680642095
BRITE-PL2 (HEWELIUSZ)   
1 40119U 14049B   26125.52330541  .00002820  00000+0  26674-3 0  9991
2 40119  97.9049 237.2110 0012648 248.3439 111.6434 14.94437329635072
